[{"OBJECT_NAME":"STARLINK-5263","OBJECT_ID":"2022-141AN","EPOCH":"2026-03-09T22:19:50.381472","MEAN_MOTION":15.08851171,"ECCENTRICITY":0.00014326,"INCLINATION":53.2179,"RA_OF_ASC_NODE":353.0825,"ARG_OF_PERICENTER":112.1465,"MEAN_ANOMALY":247.9679,"EPHEMERIS_TYPE":0,"CLASSIFICATION_TYPE":"U","NORAD_CAT_ID":54193,"ELEMENT_SET_NO":999,"REV_AT_EPOCH":18603,"BSTAR":0.0005772112,"MEAN_MOTION_DOT":8.913e-5,"MEAN_MOTION_DDOT":0},{"OBJECT_NAME":"LEMUR-2-LANGER2SPACE","OBJECT_ID":"2025-061H","EPOCH":"2026-03-09T22:29:21.653952","MEAN_MOTION":15.13463796,"ECCENTRICITY":0.00153346,"INCLINATION":97.5541,"RA_OF_ASC_NODE":45.3892,"ARG_OF_PERICENTER":237.418,"MEAN_ANOMALY":122.5571,"EPHEMERIS_TYPE":0,"CLASSIFICATION_TYPE":"U","NORAD_CAT_ID":63358,"ELEMENT_SET_NO":999,"REV_AT_EPOCH":5260,"BSTAR":0.00035148431,"MEAN_MOTION_DOT":6.238e-5,"MEAN_MOTION_DDOT":0}]
